[{"name":"ONEWEB-0497","l1":"1 54116U 22138D   26183.61700943  .00000053  00000+0  10046-3 0  9994","l2":"2 54116  87.9189 301.8905 0001918 103.5474 256.5872 13.19726271178842","cat":"starlink"},{"name":"ONEWEB-0499","l1":"1 54117U 22138E   26183.75203488 -.00000008  00000+0 -51503-4 0  9998","l2":"2 54117  87.9183 301.8716 0001752 105.8679 254.2647 13.19727151178871","cat":"starlink"},{"name":"ONEWEB-0500","l1":"1 54118U 22138F   26183.75443000  .00000038  00000+0  62484-4 0  9996","l2":"2 54118  87.9189 301.8665 0002038 100.2746 259.8617 13.19725231178889","cat":"starlink"},{"name":"ONEWEB-0501","l1":"1 54119U 22138G   26183.55699464  .00000034  00000+0  51491-4 0  9994","l2":"2 54119  87.9190 301.9056 0001748 112.8869 247.2448 13.19725381178833","cat":"starlink"},{"name":"ONEWEB-0502","l1":"1 54120U 22138H   26183.61858756  .00000016  00000+0  76875-5 0  9998","l2":"2 54120  87.9192 301.8823 0001718 104.7851 255.3472 13.19725181178864","cat":"starlink"},{"name":"ONEWEB-0503","l1":"1 54121U 22138J   26183.75916584  .00000025  00000+0  30948-4 0  9998","l2":"2 54121  87.9192 301.8605 0001783  93.9720 266.1617 13.19725496178870","cat":"starlink"},{"name":"ONEWEB-0504","l1":"1 54122U 22138K   26183.74653142  .00000026  00000+0  31365-4 0  9991","l2":"2 54122  87.9190 301.8677 0001716 103.7998 256.3325 13.19725829178889","cat":"starlink"},{"name":"ONEWEB-0505","l1":"1 54123U 22138L   26183.74336042  .00000049  00000+0  91293-4 0  9990","l2":"2 54123  87.9194 301.8689 0001655 112.9918 247.1389 13.19726923178865","cat":"starlink"},{"name":"ONEWEB-0506","l1":"1 54124U 22138M   26183.71810153 -.00000006  00000+0 -48342-4 0  9990","l2":"2 54124  87.9192 301.8714 0001770 109.4550 250.6774 13.19724626178858","cat":"starlink"},{"name":"ONEWEB-0507","l1":"1 54125U 22138N   26183.73863209  .00000022  00000+0  21481-4 0  9994","l2":"2 54125  87.9181 301.8780 0001882 106.8636 253.2703 13.19725935178901","cat":"starlink"},{"name":"ONEWEB-0508","l1":"1 54126U 22138P   26183.73547238  .00000082  00000+0  17171-3 0  9992","l2":"2 54126  87.9182 301.8777 0001918 114.5125 245.6208 13.19725733178886","cat":"starlink"},{"name":"ONEWEB-0509","l1":"1 54127U 22138Q   26183.55854426 -.00000902  00000+0 -22857-2 0  9992","l2":"2 54127  87.9197 301.9045 0001827 106.4023 253.7310 13.19728921178839","cat":"starlink"},{"name":"ONEWEB-0510","l1":"1 54128U 22138R   26183.66214418  .00000052  00000+0  94861-4 0  9996","l2":"2 54128  87.9195 271.3524 0002255  88.9199 271.2193 13.20773386181323","cat":"starlink"},{"name":"ONEWEB-0511","l1":"1 54129U 22138S   26183.55539213  .00000060  00000+0  11842-3 0  9994","l2":"2 54129  87.9189 301.9072 0001652  97.2519 262.8802 13.19727639178860","cat":"starlink"},{"name":"ONEWEB-0512","l1":"1 54130U 22138T   26183.62331838 -.00000025  00000+0 -94525-4 0  9990","l2":"2 54130  87.9182 301.8977 0001643 106.7308 253.4005 13.19726330178846","cat":"starlink"},{"name":"ONEWEB-0513","l1":"1 54131U 22138U   26183.39522881 -.00000024  00000+0 -92542-4 0  9991","l2":"2 54131  87.9189 301.8851 0001041 111.8544 248.2700 13.20269303178721","cat":"starlink"},{"name":"ONEWEB-0514","l1":"1 54132U 22138V   26183.56330132  .00000027  00000+0  35218-4 0  9995","l2":"2 54132  87.9190 301.9048 0001991  96.6626 263.4733 13.19725887178859","cat":"starlink"},{"name":"ONEWEB-0515","l1":"1 54133U 22138W   26183.49718627  .00000017  00000+0  97314-5 0  9992","l2":"2 54133  87.9200 271.3805 0002927  97.7162 262.4304 13.20771108181328","cat":"starlink"},{"name":"ONEWEB-0516","l1":"1 54134U 22138X   26183.76546821  .00000011  00000+0 -42599-5 0  9998","l2":"2 54134  87.9186 301.8695 0002005 104.5338 255.6017 13.19726072178887","cat":"starlink"},{"name":"ONEWEB-0517","l1":"1 54135U 22138Y   26183.74494874  .00000033  00000+0  50186-4 0  9990","l2":"2 54135  87.9191 301.8672 0001763  92.4578 267.6757 13.19725359178881","cat":"starlink"},{"name":"ONEWEB-0518","l1":"1 54136U 22138Z   26183.76387920  .00000060  00000+0  11800-3 0  9995","l2":"2 54136  87.9173 301.8719 0002053 105.6605 254.4754 13.19728983178882","cat":"starlink"},{"name":"ONEWEB-0519","l1":"1 54137U 22138AA  26183.56171257 -.00000018  00000+0 -76719-4 0  9994","l2":"2 54137  87.9191 301.9048 0001802  95.3032 264.8306 13.19726733178866","cat":"starlink"},{"name":"ONEWEB-0520","l1":"1 54138U 22138AB  26183.74811027  .00000038  00000+0  63245-4 0  9991","l2":"2 54138  87.9196 301.8679 0001827 108.5750 251.5582 13.19726094178872","cat":"starlink"},{"name":"ONEWEB-0521","l1":"1 54139U 22138AC  26183.62963443 -.00000014  00000+0 -67969-4 0  9992","l2":"2 54139  87.9194 301.8800 0001838  93.4919 266.6424 13.19727002178803","cat":"starlink"},{"name":"ONEWEB-0522","l1":"1 54140U 22138AD  26183.76074612  .00000092  00000+0  19780-3 0  9991","l2":"2 54140  87.9192 301.8568 0001815 103.4741 256.6594 13.19725967178865","cat":"starlink"},{"name":"ONEWEB-0523","l1":"1 54141U 22138AE  26183.71097753  .00000088  00000+0  18498-3 0  9998","l2":"2 54141  87.9198 271.3475 0002620  86.4694 273.6739 13.20772256181355","cat":"starlink"},{"name":"ONEWEB-0524","l1":"1 54142U 22138AF  26183.70088029  .00000001  00000+0 -30683-4 0  9991","l2":"2 54142  87.9197 271.3464 0002906 102.7807 257.3651 13.20772284181351","cat":"starlink"},{"name":"ONEWEB-0525","l1":"1 54143U 22138AG  26183.62805073 -.00000044  00000+0 -14266-3 0  9995","l2":"2 54143  87.9191 301.8901 0001899 112.5539 247.5795 13.19726629178864","cat":"starlink"},{"name":"ONEWEB-0526","l1":"1 54144U 22138AH  26183.58539943  .00000133  00000+0  30077-3 0  9996","l2":"2 54144  87.9192 301.8992 0002016 104.8695 255.2661 13.19727046178834","cat":"starlink"},{"name":"ONEWEB-0529","l1":"1 54145U 22138AJ  26183.74021112  .00000034  00000+0  52691-4 0  9996","l2":"2 54145  87.9184 301.8764 0001889 107.6258 252.5081 13.19725596178874","cat":"starlink"}]