OBJECT_NAME,OBJECT_ID,EPOCH,MEAN_MOTION,ECCENTRICITY,INCLINATION,RA_OF_ASC_NODE,ARG_OF_PERICENTER,MEAN_ANOMALY,EPHEMERIS_TYPE,CLASSIFICATION_TYPE,NORAD_CAT_ID,ELEMENT_SET_NO,REV_AT_EPOCH,BSTAR,MEAN_MOTION_DOT,MEAN_MOTION_DDOT
ONEWEB-0497,2022-138D,2026-07-02T14:48:29.614752,13.19726271,.0001918,87.9189,301.8905,103.5474,256.5872,0,U,54116,999,17884,.10046E-3,.53E-6,0
ONEWEB-0499,2022-138E,2026-07-02T18:02:55.813632,13.19727151,.0001752,87.9183,301.8716,105.8679,254.2647,0,U,54117,999,17887,-.51503E-4,-.8E-7,0
ONEWEB-0500,2022-138F,2026-07-02T18:06:22.752000,13.19725231,.0002038,87.9189,301.8665,100.2746,259.8617,0,U,54118,999,17888,.62484E-4,.38E-6,0
ONEWEB-0501,2022-138G,2026-07-02T13:22:04.336896,13.19725381,.0001748,87.9190,301.9056,112.8869,247.2448,0,U,54119,999,17883,.51491E-4,.34E-6,0
ONEWEB-0502,2022-138H,2026-07-02T14:50:45.965184,13.19725181,.0001718,87.9192,301.8823,104.7851,255.3472,0,U,54120,999,17886,.76875E-5,.16E-6,0
ONEWEB-0503,2022-138J,2026-07-02T18:13:11.928576,13.19725496,.0001783,87.9192,301.8605,93.9720,266.1617,0,U,54121,999,17887,.30948E-4,.25E-6,0
ONEWEB-0504,2022-138K,2026-07-02T17:55:00.314688,13.19725829,.0001716,87.9190,301.8677,103.7998,256.3325,0,U,54122,999,17888,.31365E-4,.26E-6,0
ONEWEB-0505,2022-138L,2026-07-02T17:50:26.340288,13.19726923,.0001655,87.9194,301.8689,112.9918,247.1389,0,U,54123,999,17886,.91293E-4,.49E-6,0
ONEWEB-0506,2022-138M,2026-07-02T17:14:03.972192,13.19724626,.000177,87.9192,301.8714,109.4550,250.6774,0,U,54124,999,17885,-.48342E-4,-.6E-7,0
ONEWEB-0507,2022-138N,2026-07-02T17:43:37.812576,13.19725935,.0001882,87.9181,301.8780,106.8636,253.2703,0,U,54125,999,17890,.21481E-4,.22E-6,0
ONEWEB-0508,2022-138P,2026-07-02T17:39:04.813632,13.19725733,.0001918,87.9182,301.8777,114.5125,245.6208,0,U,54126,999,17888,.17171E-3,.82E-6,0
ONEWEB-0509,2022-138Q,2026-07-02T13:24:18.224064,13.19728921,.0001827,87.9197,301.9045,106.4023,253.7310,0,U,54127,999,17883,-.22857E-2,-.902E-5,0
ONEWEB-0510,2022-138R,2026-07-02T15:53:29.257152,13.20773386,.0002255,87.9195,271.3524,88.9199,271.2193,0,U,54128,999,18132,.94861E-4,.52E-6,0
ONEWEB-0511,2022-138S,2026-07-02T13:19:45.880032,13.19727639,.0001652,87.9189,301.9072,97.2519,262.8802,0,U,54129,999,17886,.11842E-3,.6E-6,0
ONEWEB-0512,2022-138T,2026-07-02T14:57:34.708032,13.19726330,.0001643,87.9182,301.8977,106.7308,253.4005,0,U,54130,999,17884,-.94525E-4,-.25E-6,0
ONEWEB-0513,2022-138U,2026-07-02T09:29:07.769184,13.20269303,.0001041,87.9189,301.8851,111.8544,248.2700,0,U,54131,999,17872,-.92542E-4,-.24E-6,0
ONEWEB-0514,2022-138V,2026-07-02T13:31:09.234048,13.19725887,.0001991,87.9190,301.9048,96.6626,263.4733,0,U,54132,999,17885,.35218E-4,.27E-6,0
ONEWEB-0515,2022-138W,2026-07-02T11:55:56.893728,13.20771108,.0002927,87.9200,271.3805,97.7162,262.4304,0,U,54133,999,18132,.97314E-5,.17E-6,0
ONEWEB-0516,2022-138X,2026-07-02T18:22:16.453344,13.19726072,.0002005,87.9186,301.8695,104.5338,255.6017,0,U,54134,999,17888,-.42599E-5,.11E-6,0
ONEWEB-0517,2022-138Y,2026-07-02T17:52:43.571136,13.19725359,.0001763,87.9191,301.8672,92.4578,267.6757,0,U,54135,999,17888,.50186E-4,.33E-6,0
ONEWEB-0518,2022-138Z,2026-07-02T18:19:59.162880,13.19728983,.0002053,87.9173,301.8719,105.6605,254.4754,0,U,54136,999,17888,.118E-3,.6E-6,0
ONEWEB-0519,2022-138AA,2026-07-02T13:28:51.966048,13.19726733,.0001802,87.9191,301.9048,95.3032,264.8306,0,U,54137,999,17886,-.76719E-4,-.18E-6,0
ONEWEB-0520,2022-138AB,2026-07-02T17:57:16.727328,13.19726094,.0001827,87.9196,301.8679,108.5750,251.5582,0,U,54138,999,17887,.63245E-4,.38E-6,0
ONEWEB-0521,2022-138AC,2026-07-02T15:06:40.414752,13.19727002,.0001838,87.9194,301.8800,93.4919,266.6424,0,U,54139,999,17880,-.67969E-4,-.14E-6,0
ONEWEB-0522,2022-138AD,2026-07-02T18:15:28.464768,13.19725967,.0001815,87.9192,301.8568,103.4741,256.6594,0,U,54140,999,17886,.1978E-3,.92E-6,0
ONEWEB-0523,2022-138AE,2026-07-02T17:03:48.458592,13.20772256,.000262,87.9198,271.3475,86.4694,273.6739,0,U,54141,999,18135,.18498E-3,.88E-6,0
ONEWEB-0524,2022-138AF,2026-07-02T16:49:16.057056,13.20772284,.0002906,87.9197,271.3464,102.7807,257.3651,0,U,54142,999,18135,-.30683E-4,.1E-7,0
ONEWEB-0525,2022-138AG,2026-07-02T15:04:23.583072,13.19726629,.0001899,87.9191,301.8901,112.5539,247.5795,0,U,54143,999,17886,-.14266E-3,-.44E-6,0
ONEWEB-0526,2022-138AH,2026-07-02T14:02:58.510752,13.19727046,.0002016,87.9192,301.8992,104.8695,255.2661,0,U,54144,999,17883,.30077E-3,.133E-5,0
ONEWEB-0529,2022-138AJ,2026-07-02T17:45:54.240768,13.19725596,.0001889,87.9184,301.8764,107.6258,252.5081,0,U,54145,999,17887,.52691E-4,.34E-6,0
